[
  {
    "OBJECT_NAME": "STARLINK-33790",
    "OBJECT_ID": "25102H",
    "EPOCH": "2025-11-11T00:18:27.269568",
    "MEAN_MOTION": 14.98341354,
    "ECCENTRICITY": 0.0003415,
    "INCLINATION": 70.0014,
    "RA_OF_ASC_NODE": 53.7561,
    "ARG_OF_PERICENTER": 271.1988,
    "MEAN_ANOMALY": 88.878,
    "EPHEMERIS_TYPE": 0,
    "CLASSIFICATION_TYPE": "U",
    "NORAD_CAT_ID": 64029,
    "ELEMENT_SET_NO": 999,
    "REV_AT_EPOCH": 2822,
    "BSTAR": 0.00049666,
    "MEAN_MOTION_DOT": 5.84e-05,
    "MEAN_MOTION_DDOT": 0.0,
    "TLE_LINE1": "1 64029U 25102H   25315.01281562  .00005840  00000+0  49666-3 0  9992",
    "TLE_LINE2": "2 64029  70.0014  53.7561 0003415 271.1988  88.8780 14.98341354 28226",
    "COMMENT": "Grouped by shell and plane from TLE"
  },
  {
    "OBJECT_NAME": "STARLINK-34030",
    "OBJECT_ID": "25102J",
    "EPOCH": "2025-11-11T07:00:47.060640",
    "MEAN_MOTION": 14.98344519,
    "ECCENTRICITY": 0.0002998,
    "INCLINATION": 70.0026,
    "RA_OF_ASC_NODE": 53.1297,
    "ARG_OF_PERICENTER": 269.7474,
    "MEAN_ANOMALY": 90.3342,
    "EPHEMERIS_TYPE": 0,
    "CLASSIFICATION_TYPE": "U",
    "NORAD_CAT_ID": 64030,
    "ELEMENT_SET_NO": 999,
    "REV_AT_EPOCH": 2822,
    "BSTAR": 0.00068614,
    "MEAN_MOTION_DOT": 8.106e-05,
    "MEAN_MOTION_DDOT": 0.0,
    "TLE_LINE1": "1 64030U 25102J   25315.29221135  .00008106  00000+0  68614-3 0  9996",
    "TLE_LINE2": "2 64030  70.0026  53.1297 0002998 269.7474  90.3342 14.98344519 28227",
    "COMMENT": "Grouped by shell and plane from TLE"
  },
  {
    "OBJECT_NAME": "STARLINK-34024",
    "OBJECT_ID": "25102K",
    "EPOCH": "2025-11-10T16:11:32.270784",
    "MEAN_MOTION": 14.98335109,
    "ECCENTRICITY": 0.0003249,
    "INCLINATION": 70.0023,
    "RA_OF_ASC_NODE": 54.5863,
    "ARG_OF_PERICENTER": 266.3673,
    "MEAN_ANOMALY": 93.7114,
    "EPHEMERIS_TYPE": 0,
    "CLASSIFICATION_TYPE": "U",
    "NORAD_CAT_ID": 64031,
    "ELEMENT_SET_NO": 999,
    "REV_AT_EPOCH": 2806,
    "BSTAR": 0.0005465299999999999,
    "MEAN_MOTION_DOT": 6.435e-05,
    "MEAN_MOTION_DDOT": 0.0,
    "TLE_LINE1": "1 64031U 25102K   25314.67467906  .00006435  00000+0  54653-3 0  9997",
    "TLE_LINE2": "2 64031  70.0023  54.5863 0003249 266.3673  93.7114 14.98335109 28064",
    "COMMENT": "Grouped by shell and plane from TLE"
  },
  {
    "OBJECT_NAME": "STARLINK-34019",
    "OBJECT_ID": "25102L",
    "EPOCH": "2025-11-11T07:30:47.958048",
    "MEAN_MOTION": 14.98339392,
    "ECCENTRICITY": 0.0003232,
    "INCLINATION": 70.0015,
    "RA_OF_ASC_NODE": 52.8009,
    "ARG_OF_PERICENTER": 272.797,
    "MEAN_ANOMALY": 87.2819,
    "EPHEMERIS_TYPE": 0,
    "CLASSIFICATION_TYPE": "U",
    "NORAD_CAT_ID": 64032,
    "ELEMENT_SET_NO": 999,
    "REV_AT_EPOCH": 2823,
    "BSTAR": 0.00029623,
    "MEAN_MOTION_DOT": 3.444e-05,
    "MEAN_MOTION_DDOT": 0.0,
    "TLE_LINE1": "1 64032U 25102L   25315.31305507  .00003444  00000+0  29623-3 0  9994",
    "TLE_LINE2": "2 64032  70.0015  52.8009 0003232 272.7970  87.2819 14.98339392 28239",
    "COMMENT": "Grouped by shell and plane from TLE"
  },
  {
    "OBJECT_NAME": "STARLINK-33860",
    "OBJECT_ID": "25102M",
    "EPOCH": "2025-11-11T06:12:41.622048",
    "MEAN_MOTION": 14.98345332,
    "ECCENTRICITY": 0.0003278,
    "INCLINATION": 70.0035,
    "RA_OF_ASC_NODE": 53.0166,
    "ARG_OF_PERICENTER": 261.5244,
    "MEAN_ANOMALY": 98.5544,
    "EPHEMERIS_TYPE": 0,
    "CLASSIFICATION_TYPE": "U",
    "NORAD_CAT_ID": 64033,
    "ELEMENT_SET_NO": 999,
    "REV_AT_EPOCH": 2822,
    "BSTAR": 0.00058526,
    "MEAN_MOTION_DOT": 6.9e-05,
    "MEAN_MOTION_DDOT": 0.0,
    "TLE_LINE1": "1 64033U 25102M   25315.25881507  .00006900  00000+0  58526-3 0  9991",
    "TLE_LINE2": "2 64033  70.0035  53.0166 0003278 261.5244  98.5544 14.98345332 28229",
    "COMMENT": "Grouped by shell and plane from TLE"
  },
  {
    "OBJECT_NAME": "STARLINK-33946",
    "OBJECT_ID": "25102N",
    "EPOCH": "2025-11-11T06:18:56.687040",
    "MEAN_MOTION": 14.98340995,
    "ECCENTRICITY": 0.0002737,
    "INCLINATION": 70.003,
    "RA_OF_ASC_NODE": 53.0328,
    "ARG_OF_PERICENTER": 272.9015,
    "MEAN_ANOMALY": 87.183,
    "EPHEMERIS_TYPE": 0,
    "CLASSIFICATION_TYPE": "U",
    "NORAD_CAT_ID": 64034,
    "ELEMENT_SET_NO": 999,
    "REV_AT_EPOCH": 2826,
    "BSTAR": 0.00049711,
    "MEAN_MOTION_DOT": 5.845e-05,
    "MEAN_MOTION_DDOT": 0.0,
    "TLE_LINE1": "1 64034U 25102N   25315.26315610  .00005845  00000+0  49711-3 0  9993",
    "TLE_LINE2": "2 64034  70.0030  53.0328 0002737 272.9015  87.1830 14.98340995 28262",
    "COMMENT": "Grouped by shell and plane from TLE"
  },
  {
    "OBJECT_NAME": "STARLINK-34046",
    "OBJECT_ID": "25102P",
    "EPOCH": "2025-11-11T07:07:01.153632",
    "MEAN_MOTION": 14.98344831,
    "ECCENTRICITY": 0.0003098,
    "INCLINATION": 70.0018,
    "RA_OF_ASC_NODE": 53.0261,
    "ARG_OF_PERICENTER": 274.5029,
    "MEAN_ANOMALY": 85.5776,
    "EPHEMERIS_TYPE": 0,
    "CLASSIFICATION_TYPE": "U",
    "NORAD_CAT_ID": 64035,
    "ELEMENT_SET_NO": 999,
    "REV_AT_EPOCH": 2799,
    "BSTAR": 0.00066722,
    "MEAN_MOTION_DOT": 7.88e-05,
    "MEAN_MOTION_DDOT": 0.0,
    "TLE_LINE1": "1 64035U 25102P   25315.29654113  .00007880  00000+0  66722-3 0  9993",
    "TLE_LINE2": "2 64035  70.0018  53.0261 0003098 274.5029  85.5776 14.98344831 27992",
    "COMMENT": "Grouped by shell and plane from TLE"
  },
  {
    "OBJECT_NAME": "STARLINK-34085",
    "OBJECT_ID": "25102Q",
    "EPOCH": "2025-11-11T06:49:01.958016",
    "MEAN_MOTION": 14.98344303,
    "ECCENTRICITY": 0.0002594,
    "INCLINATION": 70.004,
    "RA_OF_ASC_NODE": 53.0989,
    "ARG_OF_PERICENTER": 277.8254,
    "MEAN_ANOMALY": 82.261,
    "EPHEMERIS_TYPE": 0,
    "CLASSIFICATION_TYPE": "U",
    "NORAD_CAT_ID": 64036,
    "ELEMENT_SET_NO": 999,
    "REV_AT_EPOCH": 2821,
    "BSTAR": 0.0019331,
    "MEAN_MOTION_DOT": 0.00023057,
    "MEAN_MOTION_DDOT": 0.0,
    "TLE_LINE1": "1 64036U 25102Q   25315.28405044  .00023057  00000+0  19331-2 0  9997",
    "TLE_LINE2": "2 64036  70.0040  53.0989 0002594 277.8254  82.2610 14.98344303 28212",
    "COMMENT": "Grouped by shell and plane from TLE"
  },
  {
    "OBJECT_NAME": "STARLINK-34008",
    "OBJECT_ID": "25102R",
    "EPOCH": "2025-11-10T17:41:53.826720",
    "MEAN_MOTION": 14.98336841,
    "ECCENTRICITY": 0.0003354,
    "INCLINATION": 70.0026,
    "RA_OF_ASC_NODE": 54.3976,
    "ARG_OF_PERICENTER": 264.8259,
    "MEAN_ANOMALY": 95.2517,
    "EPHEMERIS_TYPE": 0,
    "CLASSIFICATION_TYPE": "U",
    "NORAD_CAT_ID": 64037,
    "ELEMENT_SET_NO": 999,
    "REV_AT_EPOCH": 2814,
    "BSTAR": 0.00061907,
    "MEAN_MOTION_DOT": 7.303e-05,
    "MEAN_MOTION_DDOT": 0.0,
    "TLE_LINE1": "1 64037U 25102R   25314.73742855  .00007303  00000+0  61907-3 0  9994",
    "TLE_LINE2": "2 64037  70.0026  54.3976 0003354 264.8259  95.2517 14.98336841 28143",
    "COMMENT": "Grouped by shell and plane from TLE"
  },
  {
    "OBJECT_NAME": "STARLINK-34079",
    "OBJECT_ID": "25102S",
    "EPOCH": "2025-11-11T07:24:46.715328",
    "MEAN_MOTION": 14.98327897,
    "ECCENTRICITY": 0.0002688,
    "INCLINATION": 70.0016,
    "RA_OF_ASC_NODE": 52.7846,
    "ARG_OF_PERICENTER": 276.1917,
    "MEAN_ANOMALY": 83.8936,
    "EPHEMERIS_TYPE": 0,
    "CLASSIFICATION_TYPE": "U",
    "NORAD_CAT_ID": 64038,
    "ELEMENT_SET_NO": 999,
    "REV_AT_EPOCH": 2832,
    "BSTAR": 0.00099668,
    "MEAN_MOTION_DOT": 0.00011818,
    "MEAN_MOTION_DDOT": 0.0,
    "TLE_LINE1": "1 64038U 25102S   25315.30887402  .00011818  00000+0  99668-3 0  9998",
    "TLE_LINE2": "2 64038  70.0016  52.7846 0002688 276.1917  83.8936 14.98327897 28326",
    "COMMENT": "Grouped by shell and plane from TLE"
  },
  {
    "OBJECT_NAME": "STARLINK-34089",
    "OBJECT_ID": "25102T",
    "EPOCH": "2025-11-11T07:13:02.728992",
    "MEAN_MOTION": 14.98341128,
    "ECCENTRICITY": 0.0003015,
    "INCLINATION": 70.0019,
    "RA_OF_ASC_NODE": 53.1565,
    "ARG_OF_PERICENTER": 271.0811,
    "MEAN_ANOMALY": 89.0003,
    "EPHEMERIS_TYPE": 0,
    "CLASSIFICATION_TYPE": "U",
    "NORAD_CAT_ID": 64039,
    "ELEMENT_SET_NO": 999,
    "REV_AT_EPOCH": 2821,
    "BSTAR": 0.00041004,
    "MEAN_MOTION_DOT": 4.804e-05,
    "MEAN_MOTION_DDOT": 0.0,
    "TLE_LINE1": "1 64039U 25102T   25315.30072603  .00004804  00000+0  41004-3 0  9996",
    "TLE_LINE2": "2 64039  70.0019  53.1565 0003015 271.0811  89.0003 14.98341128 28219",
    "COMMENT": "Grouped by shell and plane from TLE"
  },
  {
    "OBJECT_NAME": "STARLINK-34117",
    "OBJECT_ID": "25102U",
    "EPOCH": "2025-11-11T06:55:00.681312",
    "MEAN_MOTION": 14.98350176,
    "ECCENTRICITY": 0.0002834,
    "INCLINATION": 70.0021,
    "RA_OF_ASC_NODE": 53.1096,
    "ARG_OF_PERICENTER": 268.8023,
    "MEAN_ANOMALY": 91.2811,
    "EPHEMERIS_TYPE": 0,
    "CLASSIFICATION_TYPE": "U",
    "NORAD_CAT_ID": 64040,
    "ELEMENT_SET_NO": 999,
    "REV_AT_EPOCH": 2815,
    "BSTAR": 0.0011025,
    "MEAN_MOTION_DOT": 0.00013093,
    "MEAN_MOTION_DDOT": 0.0,
    "TLE_LINE1": "1 64040U 25102U   25315.28820233  .00013093  00000+0  11025-2 0  9994",
    "TLE_LINE2": "2 64040  70.0021  53.1096 0002834 268.8023  91.2811 14.98350176 28158",
    "COMMENT": "Grouped by shell and plane from TLE"
  },
  {
    "OBJECT_NAME": "STARLINK-34111",
    "OBJECT_ID": "25102V",
    "EPOCH": "2025-11-11T00:12:26.555616",
    "MEAN_MOTION": 14.98338118,
    "ECCENTRICITY": 0.000289,
    "INCLINATION": 70.0024,
    "RA_OF_ASC_NODE": 53.7392,
    "ARG_OF_PERICENTER": 268.3851,
    "MEAN_ANOMALY": 91.6977,
    "EPHEMERIS_TYPE": 0,
    "CLASSIFICATION_TYPE": "U",
    "NORAD_CAT_ID": 64041,
    "ELEMENT_SET_NO": 999,
    "REV_AT_EPOCH": 2795,
    "BSTAR": 0.00032081,
    "MEAN_MOTION_DOT": 3.738e-05,
    "MEAN_MOTION_DDOT": 0.0,
    "TLE_LINE1": "1 64041U 25102V   25315.00864069  .00003738  00000+0  32081-3 0  9991",
    "TLE_LINE2": "2 64041  70.0024  53.7392 0002890 268.3851  91.6977 14.98338118 27959",
    "COMMENT": "Grouped by shell and plane from TLE"
  }
]